MAROC-TUBSAT            
1 27004U 01056D   26171.37260714 -.00000034  00000+0  13845-4 0  9994
2 27004  99.8084 348.2921 0020418 133.3391 346.0489 13.70262541226623
METEOSAT-10 (MSG-3)     
1 38552U 12035B   26171.03561044 -.00000013  00000+0  00000+0 0  9997
2 38552   4.6793  61.0121 0001484   2.4454 217.8971  1.00266543 50884
METEOR-M 2              
1 40069U 14037A   26172.50978403 -.00000166  00000+0 -56554-4 0  9991
2 40069  98.5120 148.0953 0006595  33.6763 326.4832 14.21461368619931
METEOR-M2 2             
1 44387U 19038A   26172.52968670  .00000005  00000+0  22237-4 0  9992
2 44387  98.9151 159.8796 0001904  41.8346 318.2978 14.24366528361915
LUDI TANCE 1-01A (L-SA*)
1 51284U 22007A   26172.55088731  .00000421  00000+0  51289-4 0  9991
2 51284  97.8104 179.9088 0001613  90.5604 269.5798 14.88411281239129
LUDI TANCE 1-01B (L-SA*)
1 51822U 22018A   26172.51723980  .00000425  00000+0  51681-4 0  9999
2 51822  97.8109 179.8725 0001609  92.4197 267.7204 14.88422507234357
METEOR-M2 3             
1 57166U 23091A   26172.52499583 -.00000006  00000+0  16221-4 0  9995
2 57166  98.6080 227.4146 0004589 144.4775 215.6710 14.24047159155136
LUDI TANCE-4 01A        
1 57624U 23120A   26171.05329052 -.00000180  00000+0  00000+0 0  9993
2 57624  15.1003 193.8881 0001259  33.4484 149.7746  1.00268643 10578
METEOR-M2 4             
1 59051U 24039A   26172.54463940  .00000004  00000+0  21415-4 0  9991
2 59051  98.7012 131.7880 0007535 149.0442 211.1182 14.22429890119885
LEGION 4                
1 60453U 24146B   26171.29688795  .00003587  00000+0  19653-3 0  9995
2 60453  45.0017 105.7874 0013480 324.8703  35.1285 15.16053228101348
