{
 "generated_at": "2026-06-22T10:39:18Z",
 "sources": [
  {
   "name": "CelesTrak",
   "url": "https://celestrak.org/NORAD/elements/",
   "license": "frei verfügbar; Attribution. Ursprünglich USSPACECOM/Space-Track."
  },
  {
   "name": "GCAT (J. McDowell, planet4589.org)",
   "url": "https://planet4589.org/space/gcat/",
   "license": "CC-BY 4.0"
  }
 ],
 "satellites": [
  {
   "norad": 60453,
   "name": "LEGION 4",
   "intl": "2024-146B",
   "group": "resource",
   "gcat": {
    "class": "B",
    "category": "IMG",
    "owner": "MAXARI",
    "state": "US"
   },
   "omm": {
    "OBJECT_NAME": "LEGION 4",
    "OBJECT_ID": "2024-146B",
    "EPOCH": "2026-06-20T07:07:31.118880",
    "MEAN_MOTION": 15.16053228,
    "ECCENTRICITY": 0.001348,
    "INCLINATION": 45.0017,
    "RA_OF_ASC_NODE": 105.7874,
    "ARG_OF_PERICENTER": 324.8703,
    "MEAN_ANOMALY": 35.1285,
    "EPHEMERIS_TYPE": 0,
    "CLASSIFICATION_TYPE": "U",
    "NORAD_CAT_ID": 60453,
    "ELEMENT_SET_NO": 999,
    "REV_AT_EPOCH": 10134,
    "BSTAR": 0.00019653,
    "MEAN_MOTION_DOT": 0.00003587,
    "MEAN_MOTION_DDOT": 0
   }
  },
  {
   "norad": 51284,
   "name": "LUDI TANCE 1-01A (L-SAR 01A)",
   "intl": "2022-007A",
   "group": "sar",
   "gcat": {
    "class": "C",
    "category": "IMG-R",
    "owner": "SAST",
    "state": "CN"
   },
   "omm": {
    "OBJECT_NAME": "LUDI TANCE 1-01A (L-SAR 01A)",
    "OBJECT_ID": "2022-007A",
    "EPOCH": "2026-06-21T13:13:16.663584",
    "MEAN_MOTION": 14.88411281,
    "ECCENTRICITY": 0.0001613,
    "INCLINATION": 97.8104,
    "RA_OF_ASC_NODE": 179.9088,
    "ARG_OF_PERICENTER": 90.5604,
    "MEAN_ANOMALY": 269.5798,
    "EPHEMERIS_TYPE": 0,
    "CLASSIFICATION_TYPE": "U",
    "NORAD_CAT_ID": 51284,
    "ELEMENT_SET_NO": 999,
    "REV_AT_EPOCH": 23912,
    "BSTAR": 0.000051289,
    "MEAN_MOTION_DOT": 0.00000421,
    "MEAN_MOTION_DDOT": 0
   }
  },
  {
   "norad": 51822,
   "name": "LUDI TANCE 1-01B (L-SAR 01B)",
   "intl": "2022-018A",
   "group": "sar",
   "gcat": {
    "class": "C",
    "category": "IMG-R",
    "owner": "SAST",
    "state": "CN"
   },
   "omm": {
    "OBJECT_NAME": "LUDI TANCE 1-01B (L-SAR 01B)",
    "OBJECT_ID": "2022-018A",
    "EPOCH": "2026-06-21T12:24:49.518720",
    "MEAN_MOTION": 14.88422507,
    "ECCENTRICITY": 0.0001609,
    "INCLINATION": 97.8109,
    "RA_OF_ASC_NODE": 179.8725,
    "ARG_OF_PERICENTER": 92.4197,
    "MEAN_ANOMALY": 267.7204,
    "EPHEMERIS_TYPE": 0,
    "CLASSIFICATION_TYPE": "U",
    "NORAD_CAT_ID": 51822,
    "ELEMENT_SET_NO": 999,
    "REV_AT_EPOCH": 23435,
    "BSTAR": 0.000051681,
    "MEAN_MOTION_DOT": 0.00000425,
    "MEAN_MOTION_DDOT": 0
   }
  },
  {
   "norad": 57624,
   "name": "LUDI TANCE-4 01A",
   "intl": "2023-120A",
   "group": "sar",
   "gcat": {
    "class": "D",
    "category": "IMG-R",
    "owner": "CNSA",
    "state": "CN"
   },
   "omm": {
    "OBJECT_NAME": "LUDI TANCE-4 01A",
    "OBJECT_ID": "2023-120A",
    "EPOCH": "2026-06-20T01:16:44.300928",
    "MEAN_MOTION": 1.00268643,
    "ECCENTRICITY": 0.00012596,
    "INCLINATION": 15.1003,
    "RA_OF_ASC_NODE": 193.8881,
    "ARG_OF_PERICENTER": 33.4484,
    "MEAN_ANOMALY": 149.7746,
    "EPHEMERIS_TYPE": 0,
    "CLASSIFICATION_TYPE": "U",
    "NORAD_CAT_ID": 57624,
    "ELEMENT_SET_NO": 999,
    "REV_AT_EPOCH": 1057,
    "BSTAR": 0,
    "MEAN_MOTION_DOT": -0.0000018,
    "MEAN_MOTION_DDOT": 0
   }
  },
  {
   "norad": 27004,
   "name": "MAROC-TUBSAT",
   "intl": "2001-056D",
   "group": "resource",
   "gcat": {
    "class": null,
    "category": null,
    "owner": null,
    "state": null
   },
   "omm": {
    "OBJECT_NAME": "MAROC-TUBSAT",
    "OBJECT_ID": "2001-056D",
    "EPOCH": "2026-06-20T08:56:33.256896",
    "MEAN_MOTION": 13.70262541,
    "ECCENTRICITY": 0.0020418,
    "INCLINATION": 99.8084,
    "RA_OF_ASC_NODE": 348.2921,
    "ARG_OF_PERICENTER": 133.3391,
    "MEAN_ANOMALY": 346.0489,
    "EPHEMERIS_TYPE": 0,
    "CLASSIFICATION_TYPE": "U",
    "NORAD_CAT_ID": 27004,
    "ELEMENT_SET_NO": 999,
    "REV_AT_EPOCH": 22662,
    "BSTAR": 0.000013845,
    "MEAN_MOTION_DOT": -3.4e-7,
    "MEAN_MOTION_DDOT": 0
   }
  },
  {
   "norad": 40069,
   "name": "METEOR-M 2",
   "intl": "2014-037A",
   "group": "weather",
   "gcat": {
    "class": "C",
    "category": "MET",
    "owner": "RGMS/VNIIEMI",
    "state": "RU"
   },
   "omm": {
    "OBJECT_NAME": "METEOR-M 2",
    "OBJECT_ID": "2014-037A",
    "EPOCH": "2026-06-21T12:14:05.340192",
    "MEAN_MOTION": 14.21461368,
    "ECCENTRICITY": 0.0006595,
    "INCLINATION": 98.512,
    "RA_OF_ASC_NODE": 148.0953,
    "ARG_OF_PERICENTER": 33.6763,
    "MEAN_ANOMALY": 326.4832,
    "EPHEMERIS_TYPE": 0,
    "CLASSIFICATION_TYPE": "U",
    "NORAD_CAT_ID": 40069,
    "ELEMENT_SET_NO": 999,
    "REV_AT_EPOCH": 61993,
    "BSTAR": -0.000056554,
    "MEAN_MOTION_DOT": -0.00000166,
    "MEAN_MOTION_DDOT": 0
   }
  },
  {
   "norad": 44387,
   "name": "METEOR-M2 2",
   "intl": "2019-038A",
   "group": "weather",
   "gcat": {
    "class": "C",
    "category": "MET",
    "owner": "RGMS/VNIIEMI",
    "state": "RU"
   },
   "omm": {
    "OBJECT_NAME": "METEOR-M2 2",
    "OBJECT_ID": "2019-038A",
    "EPOCH": "2026-06-21T12:42:44.930880",
    "MEAN_MOTION": 14.24366528,
    "ECCENTRICITY": 0.0001904,
    "INCLINATION": 98.9151,
    "RA_OF_ASC_NODE": 159.8796,
    "ARG_OF_PERICENTER": 41.8346,
    "MEAN_ANOMALY": 318.2978,
    "EPHEMERIS_TYPE": 0,
    "CLASSIFICATION_TYPE": "U",
    "NORAD_CAT_ID": 44387,
    "ELEMENT_SET_NO": 999,
    "REV_AT_EPOCH": 36191,
    "BSTAR": 0.000022237,
    "MEAN_MOTION_DOT": 5e-8,
    "MEAN_MOTION_DDOT": 0
   }
  },
  {
   "norad": 57166,
   "name": "METEOR-M2 3",
   "intl": "2023-091A",
   "group": "weather",
   "gcat": {
    "class": "C",
    "category": "MET",
    "owner": "RGMS/VNIIEMI",
    "state": "RU"
   },
   "omm": {
    "OBJECT_NAME": "METEOR-M2 3",
    "OBJECT_ID": "2023-091A",
    "EPOCH": "2026-06-21T12:35:59.639712",
    "MEAN_MOTION": 14.24047159,
    "ECCENTRICITY": 0.0004589,
    "INCLINATION": 98.608,
    "RA_OF_ASC_NODE": 227.4146,
    "ARG_OF_PERICENTER": 144.4775,
    "MEAN_ANOMALY": 215.671,
    "EPHEMERIS_TYPE": 0,
    "CLASSIFICATION_TYPE": "U",
    "NORAD_CAT_ID": 57166,
    "ELEMENT_SET_NO": 999,
    "REV_AT_EPOCH": 15513,
    "BSTAR": 0.000016221,
    "MEAN_MOTION_DOT": -6e-8,
    "MEAN_MOTION_DDOT": 0
   }
  },
  {
   "norad": 59051,
   "name": "METEOR-M2 4",
   "intl": "2024-039A",
   "group": "weather",
   "gcat": {
    "class": "C",
    "category": "MET",
    "owner": "RGMS/VNIIEMI",
    "state": "RU"
   },
   "omm": {
    "OBJECT_NAME": "METEOR-M2 4",
    "OBJECT_ID": "2024-039A",
    "EPOCH": "2026-06-21T13:04:16.844160",
    "MEAN_MOTION": 14.2242989,
    "ECCENTRICITY": 0.0007535,
    "INCLINATION": 98.7012,
    "RA_OF_ASC_NODE": 131.788,
    "ARG_OF_PERICENTER": 149.0442,
    "MEAN_ANOMALY": 211.1182,
    "EPHEMERIS_TYPE": 0,
    "CLASSIFICATION_TYPE": "U",
    "NORAD_CAT_ID": 59051,
    "ELEMENT_SET_NO": 999,
    "REV_AT_EPOCH": 11988,
    "BSTAR": 0.000021415,
    "MEAN_MOTION_DOT": 4e-8,
    "MEAN_MOTION_DDOT": 0
   }
  },
  {
   "norad": 38552,
   "name": "METEOSAT-10 (MSG-3)",
   "intl": "2012-035B",
   "group": "weather",
   "gcat": {
    "class": "C",
    "category": "MET",
    "owner": "EUMET",
    "state": "I-EUM"
   },
   "omm": {
    "OBJECT_NAME": "METEOSAT-10 (MSG-3)",
    "OBJECT_ID": "2012-035B",
    "EPOCH": "2026-06-20T00:51:16.742016",
    "MEAN_MOTION": 1.00266543,
    "ECCENTRICITY": 0.00014843,
    "INCLINATION": 4.6793,
    "RA_OF_ASC_NODE": 61.0121,
    "ARG_OF_PERICENTER": 2.4454,
    "MEAN_ANOMALY": 217.8971,
    "EPHEMERIS_TYPE": 0,
    "CLASSIFICATION_TYPE": "U",
    "NORAD_CAT_ID": 38552,
    "ELEMENT_SET_NO": 999,
    "REV_AT_EPOCH": 5088,
    "BSTAR": 0,
    "MEAN_MOTION_DOT": -1.3e-7,
    "MEAN_MOTION_DDOT": 0
   }
  }
 ]
}
